{
"type": "FeatureCollection",
"name": "coimbatore_watersheds",
"crs": { "type": "name", "properties": { "name": "urn:ogc:def:crs:OGC:1.3:CRS84" } },
"features": [
{ "type": "Feature", "properties": { "watershed_id": "WS_NOYYAL_01", "name": "Noyyal River Basin", "district": "Coimbatore", "river_basin": "Noyyal", "area_sqkm": 1209.32 }, "geometry": { "type": "Polygon", "coordinates": [ [ [ 77.25, 10.9 ], [ 77.25, 11.15 ], [ 76.85, 11.15 ], [ 76.85, 10.9 ], [ 77.25, 10.9 ] ] ] } },
{ "type": "Feature", "properties": { "watershed_id": "WS_BHAVANI_02", "name": "Bhavani Upper Catchment", "district": "Coimbatore", "river_basin": "Bhavani", "area_sqkm": 1661.19 }, "geometry": { "type": "Polygon", "coordinates": [ [ [ 77.2, 11.15 ], [ 77.2, 11.4 ], [ 76.65, 11.4 ], [ 76.65, 11.15 ], [ 77.2, 11.15 ] ] ] } },
{ "type": "Feature", "properties": { "watershed_id": "WS_ALIYAR_03", "name": "Aliyar Sub-Watershed", "district": "Coimbatore", "river_basin": "Aliyar", "area_sqkm": 1816.79 }, "geometry": { "type": "Polygon", "coordinates": [ [ [ 77.3, 10.4 ], [ 77.3, 10.7 ], [ 76.8, 10.7 ], [ 76.8, 10.4 ], [ 77.3, 10.4 ] ] ] } },
{ "type": "Feature", "properties": { "watershed_id": "WS_AMARAVATHI_04", "name": "Amaravathi Drainage Basin", "district": "Coimbatore", "river_basin": "Amaravathi", "area_sqkm": 848.47 }, "geometry": { "type": "Polygon", "coordinates": [ [ [ 77.3, 10.22 ], [ 77.3, 10.5 ], [ 77.05, 10.5 ], [ 77.05, 10.22 ], [ 77.3, 10.22 ] ] ] } },
{ "type": "Feature", "properties": { "watershed_id": "WS_SIRUVANI_05", "name": "Siruvani Catchment", "district": "Coimbatore", "river_basin": "Siruvani", "area_sqkm": 907.23 }, "geometry": { "type": "Polygon", "coordinates": [ [ [ 76.9, 10.7 ], [ 76.9, 11.0 ], [ 76.65, 11.0 ], [ 76.65, 10.7 ], [ 76.9, 10.7 ] ] ] } }
]
}
